SL-3 R/B                
1 13403U 82079B   26067.94502978  .00009464  00000+0  37724-3 0  9990
2 13403  81.1482 193.9561 0025035 167.3058 192.8812 15.24788601377589
SL-14 R/B               
1 13553U 82092B   26067.71183559  .00000653  00000+0  70553-4 0  9995
2 13553  82.5697 142.3141 0019040 307.0586 170.7103 14.86665565328784
SL-3 R/B                
1 13819U 83010B   26067.85505394  .00021617  00000+0  43441-3 0  9999
2 13819  81.1062   3.2706 0018058  53.8739 306.4173 15.46324226357810
SL-3 R/B                
1 14208U 83075B   26067.97161489  .00014823  00000+0  39082-3 0  9996
2 14208  97.6146  72.5215 0020051 228.6872 131.2648 15.38399183330040
COSMOS 1536             
1 14699U 84013A   26067.60358563  .00008958  00000+0  36989-3 0  9999
2 14699  82.5426 108.9299 0012517 287.8222  72.1649 15.23809497272450
SL-14 R/B               
1 14820U 84027B   26067.95243429  .00000671  00000+0  73904-4 0  9995
2 14820  82.5386 245.7043 0017385 340.3846  19.6699 14.85975677247525
SL-8 R/B                
1 15483U 85006B   26067.97110689  .00000331  00000+0  11842-3 0  9997
2 15483  74.0433 262.4709 0018480 180.4339 286.9157 14.37782139153926
SL-12 R/B(2)            
1 15772U 85042D   26067.80141085  .00000036  00000+0  37791-4 0  9998
2 15772  71.1063  89.6057 0033306 129.6251  42.6992 14.21982209114262
SL-14 R/B               
1 15945U 85069B   26067.93744172  .00000735  00000+0  80236-4 0  9997
2 15945  82.5284  25.6401 0018401 190.2100 169.8746 14.86432152172726
SL-16 R/B               
1 16182U 85097B   26067.66479950 -.00000181  00000+0 -66860-4 0  9995
2 16182  71.0031 142.7122 0009935 260.9745 261.2623 14.16599115 87087
SL-14 R/B               
1 16496U 86006B   26067.91469841  .00000827  00000+0  85547-4 0  9998
2 16496  82.5233 260.4668 0075057 275.4183  83.8474 14.86813778149097
COSMOS 1743             
1 16719U 86034A   26068.00000553  .00038498  00000+0  50265-3 0  9992
2 16719  82.5296  74.5547 0001676 300.6943  59.4148 15.58496631180148
